NORAD_CAT_ID,OBJECT_NAME,OBJECT_TYPE,EPOCH,MEAN_MOTION,ECCENTRICITY,INCLINATION,RA_OF_ASC_NODE,ARG_OF_PERICENTER,MEAN_ANOMALY,BSTAR,MEAN_MOTION_DOT,MEAN_MOTION_DDOT,TLE_LINE0,TLE_LINE1,TLE_LINE2,SEMIMAJOR_AXIS,PERIOD,APOGEE,PERIGEE,DECAYED
55276.0,STARLINK-5261,PAYLOAD,2023-03-26 19:51:35,15.69940224,0.0003783,70.0013,242.5325,279.9486,80.1283,3.432e-05,3.919e-05,0.0,0 STARLINK-5261,1 55276U 23010H   23085.82748967  .00003919  00000-0  34320-4 0  9998,2 55276  70.0013 242.5325 0003783 279.9486  80.1283 15.69940224 10912,6737.205,91.723,361.619,356.521,0.0
55276.0,STARLINK-5261,PAYLOAD,2023-03-27 03:30:21,15.69912195,0.0003915,70.0009,241.637,270.1986,89.8762,-6.424e-06,-9.85e-06,0.0,0 STARLINK-5261,1 55276U 23010H   23086.14608245 -.00000985  00000-0 -64240-5 0  9995,2 55276  70.0009 241.6370 0003915 270.1986  89.8762 15.69912195 10961,6737.285,91.725,361.788,356.513,0.0
55276.0,STARLINK-5261,PAYLOAD,2023-03-27 12:40:50,15.6994805,0.0003153,70.0017,240.5623,278.4696,81.6142,1.099e-05,1.11e-05,0.0,0 STARLINK-5261,1 55276U 23010H   23086.52836769  .00001110  00000-0  10990-4 0  9992,2 55276  70.0017 240.5623 0003153 278.4696  81.6142 15.69948050 11021,6737.183,91.723,361.172,356.923,0.0
55276.0,STARLINK-5261,PAYLOAD,2023-03-27 20:19:36,15.69941303,0.0003853,70.0011,239.6662,282.4564,77.62,1.055e-05,1.057e-05,0.0,0 STARLINK-5261,1 55276U 23010H   23086.84695098  .00001057  00000-0  10550-4 0  9997,2 55276  70.0011 239.6662 0003853 282.4564  77.6200 15.69941303 11072,6737.202,91.723,361.663,356.471,0.0
55276.0,STARLINK-5261,PAYLOAD,2023-03-28 13:08:53,15.69927393,0.0003045,70.0023,237.6971,272.7546,87.3302,1.654e-05,1.777e-05,0.0,0 STARLINK-5261,1 55276U 23010H   23087.54783996  .00001777  00000-0  16540-4 0  9994,2 55276  70.0023 237.6971 0003045 272.7546  87.3302 15.69927393 11187,6737.242,91.724,361.158,357.055,0.0
55276.0,STARLINK-5261,PAYLOAD,2023-03-28 19:15:53,15.69928818,0.000381,70.0001,236.9794,275.4774,84.5987,1.4097e-05,1.483e-05,0.0,0 STARLINK-5261,1 55276U 23010H   23087.80270534  .00001483  00000-0  14097-4 0  9991,2 55276  70.0001 236.9794 0003810 275.4774  84.5987 15.69928818 11531,6737.238,91.724,361.67,356.536,0.0
55276.0,STARLINK-5261,PAYLOAD,2023-03-29 02:54:39,15.69920012,0.0003623,70.0,236.0836,278.0414,82.0371,3.1972e-06,1.72e-06,0.0,0 STARLINK-5261,1 55276U 23010H   23088.12129361  .00000172  00000-0  31972-5 0  9994,2 55276  70.0000 236.0836 0003623 278.0414  82.0371 15.69920012 11279,6737.263,91.724,361.569,356.687,0.0
55276.0,STARLINK-5261,PAYLOAD,2023-03-29 12:05:10,15.69930384,0.0003537,69.9999,235.0085,277.3946,82.6848,1.9072e-05,2.082e-05,0.0,0 STARLINK-5261,1 55276U 23010H   23088.50359103  .00002082  00000-0  19072-4 0  9993,2 55276  69.9999 235.0085 0003537 277.3946  82.6848 15.69930384 11643,6737.233,91.724,361.481,356.715,0.0
55276.0,STARLINK-5261,PAYLOAD,2023-03-29 19:43:55,15.69931494,0.0003581,70.0017,234.1144,272.2935,87.785,2.4994e-05,2.795e-05,0.0,0 STARLINK-5261,1 55276U 23010H   23088.82217364  .00002795  00000-0  24994-4 0  9990,2 55276  70.0017 234.1144 0003581 272.2935  87.7850 15.69931494 11387,6737.23,91.724,361.508,356.682,0.0
55276.0,STARLINK-5261,PAYLOAD,2023-03-29 21:15:41,15.69926066,0.0003185,70.0023,233.9354,274.9666,85.1166,1.1441e-05,1.163e-05,0.0,0 STARLINK-5261,1 55276U 23010H   23088.88589360  .00001163  00000-0  11441-4 0  9995,2 55276  70.0023 233.9354 0003185 274.9666  85.1166 15.69926066 11701,6737.246,91.724,361.256,356.965,0.0
55276.0,STARLINK-5261,PAYLOAD,2023-03-30 11:01:27,15.69928623,0.0003704,70.0001,232.3213,270.1125,89.9646,2.6036e-05,2.92e-05,0.0,0 STARLINK-5261,1 55276U 23010H   23089.45934224  .00002920  00000-0  26036-4 0  9990,2 55276  70.0001 232.3213 0003704 270.1125  89.9646 15.69928623 11480,6737.238,91.724,361.599,356.608,0.0
55276.0,STARLINK-5261,PAYLOAD,2023-03-30 18:40:12,15.69936006,0.0003577,70.0013,231.4271,268.427,91.6516,5.3509e-05,6.229e-05,0.0,0 STARLINK-5261,1 55276U 23010H   23089.77792386  .00006229  00000-0  53509-4 0  9997,2 55276  70.0013 231.4271 0003577 268.4270  91.6516 15.69936006 11846,6737.217,91.723,361.492,356.672,0.0
55276.0,STARLINK-5261,PAYLOAD,2023-03-31 02:18:58,15.69913693,0.0003558,70.0013,230.529,274.2585,85.8204,-2.0635e-05,-2.692e-05,0.0,0 STARLINK-5261,1 55276U 23010H   23090.09651412 -.00002692  00000-0 -20635-4 0  9994,2 55276  70.0013 230.5290 0003558 274.2585  85.8204 15.69913693 11587,6737.281,91.725,361.543,356.749,0.0
55276.0,STARLINK-5261,PAYLOAD,2023-03-31 11:29:30,15.69901421,0.0003107,70.0003,229.4552,275.0292,85.0549,-3.7117e-05,-4.669e-05,0.0,0 STARLINK-5261,1 55276U 23010H   23090.47882499 -.00004669  00000-0 -37117-4 0  9996,2 55276  70.0003 229.4552 0003107 275.0292  85.0549 15.69901421 11645,6737.316,91.726,361.274,357.088,0.0
55276.0,STARLINK-5261,PAYLOAD,2023-03-31 19:08:15,15.69914458,0.0002948,70.0014,228.5613,260.4188,99.6675,3.4271e-06,1.99e-06,0.0,0 STARLINK-5261,1 55276U 23010H   23090.79740682  .00000199  00000-0  34271-5 0  9999,2 55276  70.0014 228.5613 0002948 260.4188  99.6675 15.69914458 11699,6737.279,91.725,361.13,357.158,0.0
55276.0,STARLINK-5261,PAYLOAD,2023-04-01 11:57:31,15.69939246,0.0003639,70.0012,226.5909,266.533,93.5449,5.7507e-05,6.712e-05,0.0,0 STARLINK-5261,1 55276U 23010H   23091.49827913  .00006712  00000-0  57507-4 0  9993,2 55276  70.0012 226.5909 0003639 266.5330  93.5449 15.69939246 11804,6737.208,91.723,361.524,356.621,0.0
55276.0,STARLINK-5261,PAYLOAD,2023-04-01 18:04:31,15.69936251,0.000382,70.0004,225.8739,268.2179,91.8579,4.407e-05,5.092e-05,0.0,0 STARLINK-5261,1 55276U 23010H   23091.75314552  .00005092  00000-0  44070-4 0  9993,2 55276  70.0004 225.8739 0003820 268.2179  91.8579 15.69936251 12157,6737.216,91.723,361.655,356.508,0.0
55276.0,STARLINK-5261,PAYLOAD,2023-04-02 12:25:34,15.6990536,0.0003079,70.001,223.7231,261.9823,98.1024,-4.8155e-06,-7.91e-06,0.0,0 STARLINK-5261,1 55276U 23010H   23092.51775860 -.00000791  00000-0 -48155-5 0  9993,2 55276  70.0010 223.7231 0003079 261.9823  98.1024 15.69905360 11960,6737.305,91.725,361.244,357.095,0.0
55276.0,STARLINK-5261,PAYLOAD,2023-04-02 18:32:34,15.69912536,0.000272,70.0011,223.0058,256.2939,103.7954,4.0865e-06,2.79e-06,0.0,0 STARLINK-5261,1 55276U 23010H   23092.77262350  .00000279  00000-0  40865-5 0  9995,2 55276  70.0011 223.0058 0002720 256.2939 103.7954 15.69912536 12002,6737.284,91.725,360.982,357.317,0.0
55276.0,STARLINK-5261,PAYLOAD,2023-04-03 11:21:50,15.69931439,0.0003015,70.0015,221.0379,256.272,103.8141,2.0549e-05,2.26e-05,0.0,0 STARLINK-5261,1 55276U 23010H   23093.47349632  .00002260  00000-0  20549-4 0  9990,2 55276  70.0015 221.0379 0003015 256.2720 103.8141 15.69931439 12110,6737.23,91.724,361.126,357.064,0.0
55276.0,STARLINK-5261,PAYLOAD,2023-04-04 11:49:52,15.6991088,0.0003024,70.0017,218.1696,256.3254,103.7605,1.7529e-06,-2e-08,0.0,0 STARLINK-5261,1 55276U 23010H   23094.49297039 -.00000002  00000-0  17529-5 0  9994,2 55276  70.0017 218.1696 0003024 256.3254 103.7605 15.69910880 12272,6737.289,91.725,361.191,357.117,0.0
55276.0,STARLINK-5261,PAYLOAD,2023-04-05 10:46:09,15.69924363,0.0003173,70.0027,215.4858,266.8122,93.2711,2.3874e-05,2.659e-05,0.0,0 STARLINK-5261,1 55276U 23010H   23095.44871946  .00002659  00000-0  23874-4 0  9993,2 55276  70.0027 215.4858 0003173 266.8122  93.2711 15.69924363 12427,6737.25,91.724,361.253,356.978,0.0
55276.0,STARLINK-5261,PAYLOAD,2023-04-05 16:53:09,15.6993831,0.0003032,70.0029,214.7686,263.5618,96.5233,4.0038e-05,4.607e-05,0.0,0 STARLINK-5261,1 55276U 23010H   23095.70358201  .00004607  00000-0  40038-4 0  9992,2 55276  70.0029 214.7686 0003032 263.5618  96.5233 15.69938310 12464,6737.21,91.723,361.118,357.033,0.0
55276.0,STARLINK-5261,PAYLOAD,2023-04-06 06:38:56,15.69925556,0.0001939,70.0043,213.1584,248.0417,112.0573,5.7453e-05,6.701e-05,0.0,0 STARLINK-5261,1 55276U 23010H   23096.27703709  .00006701  00000-0  57453-4 0  9998,2 55276  70.0043 213.1584 0001939 248.0417 112.0573 15.69925556 12558,6737.247,91.724,360.418,357.806,0.0
55276.0,STARLINK-5261,PAYLOAD,2023-04-06 11:14:11,15.69918938,0.0003134,70.0008,212.6159,267.9964,92.0873,2.2836e-05,2.533e-05,0.0,0 STARLINK-5261,1 55276U 23010H   23096.46819014  .00002533  00000-0  22836-4 0  9992,2 55276  70.0008 212.6159 0003134 267.9964  92.0873 15.69918938 12586,6737.266,91.724,361.242,357.019,0.0
55276.0,STARLINK-5261,PAYLOAD,2023-04-07 10:10:27,15.6993587,0.0002988,70.0009,209.9307,267.324,92.7613,-1.6141e-05,-2.154e-05,0.0,0 STARLINK-5261,1 55276U 23010H   23097.42393280 -.00002154  00000-0 -16141-4 0  9994,2 55276  70.0009 209.9307 0002988 267.3240  92.7613 15.69935870 12738,6737.217,91.723,361.096,357.069,0.0
55276.0,STARLINK-5261,PAYLOAD,2023-04-08 10:38:30,15.69917489,0.000292,69.9999,207.0624,250.2754,109.8127,5.036e-06,3.93e-06,0.0,0 STARLINK-5261,1 55276U 23010H   23098.44340967  .00000393  00000-0  50360-5 0  9994,2 55276  69.9999 207.0624 0002920 250.2754 109.8127 15.69917489 12894,6737.27,91.725,361.102,357.168,0.0
55276.0,STARLINK-5261,PAYLOAD,2023-04-09 09:34:47,15.699246,0.0003025,69.9993,204.3788,270.0865,89.9984,1.0087e-05,1e-05,0.0,0 STARLINK-5261,1 55276U 23010H   23099.39915874  .00001000  00000-0  10087-4 0  9991,2 55276  69.9993 204.3788 0003025 270.0865  89.9984 15.69924600 13049,6737.25,91.724,361.153,357.077,0.0
55276.0,STARLINK-5261,PAYLOAD,2023-04-10 08:31:04,15.69918541,0.000329,69.9986,201.6896,263.7856,96.2964,1.8062e-05,1.959e-05,0.0,0 STARLINK-5261,1 55276U 23010H   23100.35491153  .00001959  00000-0  18062-4 0  9993,2 55276  69.9986 201.6896 0003290 263.7856  96.2964 15.69918541 13501,6737.267,91.725,361.349,356.915,0.0
55276.0,STARLINK-5261,PAYLOAD,2023-04-10 16:09:49,15.69923772,0.0003043,69.9995,200.7951,259.7343,100.3509,2.5243e-05,2.823e-05,0.0,0 STARLINK-5261,1 55276U 23010H   23100.67349122  .00002823  00000-0  25243-4 0  9996,2 55276  69.9995 200.7951 0003043 259.7343 100.3509 15.69923772 13240,6737.252,91.724,361.167,357.067,0.0
